{"type": "FeatureCollection", "features": [ {"type": "Feature", "properties": {"norad_id": 67070, "name": "DEAR-5", "group": "last-30-days", "lat": 40.67790777331767, "lon": 107.67637524364832, "alt_km": 499.5026809462688, "timestamp": "2025-12-25T07:00:32.767188+00:00", "meta": {"OBJECT_NAME": "DEAR-5", "OBJECT_ID": "2025-296B", "EPOCH": "2025-12-23T23:03:08.623008", "MEAN_MOTION": 15.16917161, "ECCENTRICITY": 0.0016166, "INCLINATION": 41.3551, "RA_OF_ASC_NODE": 37.5614, "ARG_OF_PERICENTER": 107.8349, "MEAN_ANOMALY": 252.4237, "EPHEMERIS_TYPE": 0, "CLASSIFICATION_TYPE": "U", "NORAD_CAT_ID": 67070, "ELEMENT_SET_NO": 999, "REV_AT_EPOCH": 165, "BSTAR": 0.0002755, "MEAN_MOTION_DOT": 5.352e-05, "MEAN_MOTION_DDOT": 0}, "tle": {"line1": "1 67070U 25296B   25357.96051647  .00005352  00000+0  27550-3 0  9990", "line2": "2 67070  41.3551  37.5614 0016166 107.8349 252.4237 15.16917161  1654"}}, "geometry": {"type": "Point", "coordinates": [107.67637524364832, 40.67790777331767]}}, {"type": "Feature", "properties": {"norad_id": 67071, "name": "KZ-11 R/B", "group": "last-30-days", "lat": 40.100855101698954, "lon": 137.39296779479133, "alt_km": 193.36895381938575, "timestamp": "2025-12-25T07:00:32.767200+00:00", "meta": {"OBJECT_NAME": "KZ-11 R/B", "OBJECT_ID": "2025-296C", "EPOCH": "2025-12-24T07:54:11.602080", "MEAN_MOTION": 15.73894655, "ECCENTRICITY": 0.03315073, "INCLINATION": 41.3001, "RA_OF_ASC_NODE": 37.0775, "ARG_OF_PERICENTER": 35.4688, "MEAN_ANOMALY": 326.7718, "EPHEMERIS_TYPE": 0, "CLASSIFICATION_TYPE": "U", "NORAD_CAT_ID": 67071, "ELEMENT_SET_NO": 999, "REV_AT_EPOCH": 169, "BSTAR": 0.00038975343, "MEAN_MOTION_DOT": 0.10609503, "MEAN_MOTION_DDOT": 7.766673e-06}, "tle": {"line1": "1 67071U 25296C   25358.32930095  .10609503  77667-5  38975-3 0  9996", "line2": "2 67071  41.3001  37.0775 0331507  35.4688 326.7718 15.73894655  1697"}}, "geometry": {"type": "Point", "coordinates": [137.39296779479133, 40.100855101698954]}}, {"type": "Feature", "properties": {"norad_id": 67073, "name": "RAISE-4", "group": "last-30-days", "lat": -63.33880879004038, "lon": -48.67833864960914, "alt_km": 544.9150620803248, "timestamp": "2025-12-25T07:00:32.767210+00:00", "meta": {"OBJECT_NAME": "RAISE-4", "OBJECT_ID": "2025-297B", "EPOCH": "2025-12-24T20:22:03.397152", "MEAN_MOTION": 15.07225133, "ECCENTRICITY": 0.00115889, "INCLINATION": 97.4854, "RA_OF_ASC_NODE": 146.0713, "ARG_OF_PERICENTER": 275.4051, "MEAN_ANOMALY": 84.5855, "EPHEMERIS_TYPE": 0, "CLASSIFICATION_TYPE": "U", "NORAD_CAT_ID": 67073, "ELEMENT_SET_NO": 999, "REV_AT_EPOCH": 161, "BSTAR": 0.00032616325, "MEAN_MOTION_DOT": 4.859e-05, "MEAN_MOTION_DDOT": 0}, "tle": {"line1": "1 67073U 25297B   25358.84865043  .00004859  00000+0  32616-3 0  9995", "line2": "2 67073  97.4854 146.0713 0011588 275.4051  84.5855 15.07225133  1613"}}, "geometry": {"type": "Point", "coordinates": [-48.67833864960914, -63.33880879004038]}}, {"type": "Feature", "properties": {"norad_id": 67074, "name": "ELECTRON KICK STAGE R/B", "group": "last-30-days", "lat": 53.3424622871224, "lon": 137.18970175740714, "alt_km": 509.58662842435297, "timestamp": "2025-12-25T07:00:32.767221+00:00", "meta": {"OBJECT_NAME": "ELECTRON KICK STAGE R/B", "OBJECT_ID": "2025-297C", "EPOCH": "2025-12-24T19:59:29.353632", "MEAN_MOTION": 15.59533666, "ECCENTRICITY": 0.01908514, "INCLINATION": 97.4819, "RA_OF_ASC_NODE": 146.8774, "ARG_OF_PERICENTER": 225.6205, "MEAN_ANOMALY": 132.9287, "EPHEMERIS_TYPE": 0, "CLASSIFICATION_TYPE": "U", "NORAD_CAT_ID": 67074, "ELEMENT_SET_NO": 999, "REV_AT_EPOCH": 166, "BSTAR": 0.0017856724, "MEAN_MOTION_DOT": 0.00349936, "MEAN_MOTION_DDOT": 3.5250722e-05}, "tle": {"line1": "1 67074U 25297C   25358.83297863  .00349936  35251-4  17857-2 0  9992", "line2": "2 67074  97.4819 146.8774 0190851 225.6205 132.9287 15.59533666  1661"}}, "geometry": {"type": "Point", "coordinates": [137.18970175740714, 53.3424622871224]}}, {"type": "Feature", "properties": {"norad_id": 67075, "name": "STARLINK-36230", "group": "last-30-days", "lat": 6.822712827676354, "lon": 31.793325648660083, "alt_km": 330.9266560167389, "timestamp": "2025-12-25T07:00:32.767232+00:00", "meta": {"OBJECT_NAME": "STARLINK-36230", "OBJECT_ID": "2025-298A", "EPOCH": "2025-12-24T22:00:03.000096", "MEAN_MOTION": 15.81973819, "ECCENTRICITY": 0.00036586, "INCLINATION": 69.997, "RA_OF_ASC_NODE": 215.3641, "ARG_OF_PERICENTER": 274.9765, "MEAN_ANOMALY": 281.6668, "EPHEMERIS_TYPE": 0, "CLASSIFICATION_TYPE": "U", "NORAD_CAT_ID": 67075, "ELEMENT_SET_NO": 999, "REV_AT_EPOCH": 293, "BSTAR": -0.0094730293, "MEAN_MOTION_DOT": -0.01679345, "MEAN_MOTION_DDOT": 0}, "tle": {"line1": "1 67075U 25298A   25358.91670139 -.01679345  00000+0 -94730-2 0  9991", "line2": "2 67075  69.9970 215.3641 0003658 274.9765 281.6668 15.81973819  2934"}}, "geometry": {"type": "Point", "coordinates": [31.793325648660083, 6.822712827676354]}}, {"type": "Feature", "properties": {"norad_id": 67076, "name": "STARLINK-36240", "group": "last-30-days", "lat": 5.003728050868251, "lon": 32.461224001031276, "alt_km": 331.00905763238825, "timestamp": "2025-12-25T07:00:32.767242+00:00", "meta": {"OBJECT_NAME": "STARLINK-36240", "OBJECT_ID": "2025-298B", "EPOCH": "2025-12-24T22:00:03.000096", "MEAN_MOTION": 15.81974369, "ECCENTRICITY": 0.00036307, "INCLINATION": 69.997, "RA_OF_ASC_NODE": 215.3617, "ARG_OF_PERICENTER": 272.7762, "MEAN_ANOMALY": 285.8035, "EPHEMERIS_TYPE": 0, "CLASSIFICATION_TYPE": "U", "NORAD_CAT_ID": 67076, "ELEMENT_SET_NO": 999, "REV_AT_EPOCH": 293, "BSTAR": -0.0094778542, "MEAN_MOTION_DOT": -0.01680091, "MEAN_MOTION_DDOT": 0}, "tle": {"line1": "1 67076U 25298B   25358.91670139 -.01680091  00000+0 -94779-2 0  9995", "line2": "2 67076  69.9970 215.3617 0003630 272.7762 285.8035 15.81974369  2936"}}, "geometry": {"type": "Point", "coordinates": [32.461224001031276, 5.003728050868251]}}, {"type": "Feature", "properties": {"norad_id": 67077, "name": "STARLINK-36243", "group": "last-30-days", "lat": 2.910848713997873, "lon": 33.224924782630026, "alt_km": 331.3390080182726, "timestamp": "2025-12-25T07:00:32.767252+00:00", "meta": {"OBJECT_NAME": "STARLINK-36243", "OBJECT_ID": "2025-298C", "EPOCH": "2025-12-24T22:00:03.000096", "MEAN_MOTION": 15.81960867, "ECCENTRICITY": 0.00036098, "INCLINATION": 69.9967, "RA_OF_ASC_NODE": 215.359, "ARG_OF_PERICENTER": 275.0525, "MEAN_ANOMALY": 285.771, "EPHEMERIS_TYPE": 0, "CLASSIFICATION_TYPE": "U", "NORAD_CAT_ID": 67077, "ELEMENT_SET_NO": 999, "REV_AT_EPOCH": 293, "BSTAR": -0.0094691411, "MEAN_MOTION_DOT": -0.01677807, "MEAN_MOTION_DDOT": 0}, "tle": {"line1": "1 67077U 25298C   25358.91670139 -.01677807  00000+0 -94691-2 0  9990", "line2": "2 67077  69.9967 215.3590 0003609 275.0525 285.7710 15.81960867  2939"}}, "geometry": {"type": "Point", "coordinates": [33.224924782630026, 2.910848713997873]}}, {"type": "Feature", "properties": {"norad_id": 67078, "name": "STARLINK-36236", "group": "last-30-days", "lat": 1.2143715733603446, "lon": 33.84167386565149, "alt_km": 331.4356619795253, "timestamp": "2025-12-25T07:00:32.767262+00:00", "meta": {"OBJECT_NAME": "STARLINK-36236", "OBJECT_ID": "2025-298D", "EPOCH": "2025-12-24T22:00:03.000096", "MEAN_MOTION": 15.81967277, "ECCENTRICITY": 0.00037121, "INCLINATION": 69.997, "RA_OF_ASC_NODE": 215.3568, "ARG_OF_PERICENTER": 273.8138, "MEAN_ANOMALY": 288.8091, "EPHEMERIS_TYPE": 0, "CLASSIFICATION_TYPE": "U", "NORAD_CAT_ID": 67078, "ELEMENT_SET_NO": 999, "REV_AT_EPOCH": 293, "BSTAR": -0.0094802211, "MEAN_MOTION_DOT": -0.01680063, "MEAN_MOTION_DDOT": 0}, "tle": {"line1": "1 67078U 25298D   25358.91670139 -.01680063  00000+0 -94802-2 0  9993", "line2": "2 67078  69.9970 215.3568 0003712 273.8138 288.8091 15.81967277  2938"}}, "geometry": {"type": "Point", "coordinates": [33.84167386565149, 1.2143715733603446]}}, {"type": "Feature", "properties": {"norad_id": 67079, "name": "STARLINK-36159", "group": "last-30-days", "lat": -0.8928184064569251, "lon": 34.60704043381403, "alt_km": 331.6697488402988, "timestamp": "2025-12-25T07:00:32.767275+00:00", "meta": {"OBJECT_NAME": "STARLINK-36159", "OBJECT_ID": "2025-298E", "EPOCH": "2025-12-24T22:00:03.000096", "MEAN_MOTION": 15.81952343, "ECCENTRICITY": 0.00036827, "INCLINATION": 69.9971, "RA_OF_ASC_NODE": 215.3544, "ARG_OF_PERICENTER": 274.1666, "MEAN_ANOMALY": 290.7167, "EPHEMERIS_TYPE": 0, "CLASSIFICATION_TYPE": "U", "NORAD_CAT_ID": 67079, "ELEMENT_SET_NO": 999, "REV_AT_EPOCH": 293, "BSTAR": -0.0094698009, "MEAN_MOTION_DOT": -0.01677409, "MEAN_MOTION_DDOT": 0}, "tle": {"line1": "1 67079U 25298E   25358.91670139 -.01677409  00000+0 -94698-2 0  9997", "line2": "2 67079  69.9971 215.3544 0003682 274.1666 290.7167 15.81952343  2934"}}, "geometry": {"type": "Point", "coordinates": [34.60704043381403, -0.8928184064569251]}}, {"type": "Feature", "properties": {"norad_id": 67080, "name": "STARLINK-36158", "group": "last-30-days", "lat": -2.8946072163802437, "lon": 35.33472248237975, "alt_km": 331.8888074059032, "timestamp": "2025-12-25T07:00:32.767285+00:00", "meta": {"OBJECT_NAME": "STARLINK-36158", "OBJECT_ID": "2025-298F", "EPOCH": "2025-12-24T22:00:03.000096", "MEAN_MOTION": 15.81948692, "ECCENTRICITY": 0.00037223, "INCLINATION": 69.9969, "RA_OF_ASC_NODE": 215.3519, "ARG_OF_PERICENTER": 274.7969, "MEAN_ANOMALY": 292.2253, "EPHEMERIS_TYPE": 0, "CLASSIFICATION_TYPE": "U", "NORAD_CAT_ID": 67080, "ELEMENT_SET_NO": 999, "REV_AT_EPOCH": 287, "BSTAR": -0.0095030073, "MEAN_MOTION_DOT": -0.01682297, "MEAN_MOTION_DDOT": 0}, "tle": {"line1": "1 67080U 25298F   25358.91670139 -.01682297  00000+0 -95030-2 0  9991", "line2": "2 67080  69.9969 215.3519 0003722 274.7969 292.2253 15.81948692  2870"}}, "geometry": {"type": "Point", "coordinates": [35.33472248237975, -2.8946072163802437]}}]}